[
    {
        "Altitude(m)": 716936.5683736257,
        "Argument of Periapsis(deg)": 0.007973084830638947,
        "Eccentricity": 0.0,
        "Inclination(deg)": 45.0,
        "Latitude(deg)": -42.85852055192004,
        "Longitude(deg)": -98.17449939050783,
        "Mean Anomaly(deg)": -106.47224834676341,
        "RAAN(deg)": 114.99247364097926,
        "Satellite Name": "Constellation 1 521",
        "Satellite Number": 521,
        "Semi-Major Axis(m)": 7083131.272910544,
        "Time(s)": 133
    },
    {
        "Altitude(m)": 716943.386547119,
        "Argument of Periapsis(deg)": 0.008033032836884352,
        "Eccentricity": 0.0,
        "Inclination(deg)": 45.0,
        "Latitude(deg)": -42.875010206083964,
        "Longitude(deg)": -98.09929435331321,
        "Mean Anomaly(deg)": -106.41154720651356,
        "RAAN(deg)": 114.99241705181369,
        "Satellite Name": "Constellation 1 521",
        "Satellite Number": 521,
        "Semi-Major Axis(m)": 7083131.272910544,
        "Time(s)": 134
    },
    {
        "Altitude(m)": 716950.1817788134,
        "Argument of Periapsis(deg)": 0.008092980843129758,
        "Eccentricity": 0.0,
        "Inclination(deg)": 45.0,
        "Latitude(deg)": -42.891444845838315,
        "Longitude(deg)": -98.02404724204712,
        "Mean Anomaly(deg)": -106.35084606626364,
        "RAAN(deg)": 114.99236046264811,
        "Satellite Name": "Constellation 1 521",
        "Satellite Number": 521,
        "Semi-Major Axis(m)": 7083131.272910544,
        "Time(s)": 135
    },
    {
        "Altitude(m)": 716956.9540437089,
        "Argument of Periapsis(deg)": 0.008152928849375162,
        "Eccentricity": 0.0,
        "Inclination(deg)": 45.0,
        "Latitude(deg)": -42.90782441114977,
        "Longitude(deg)": -97.94875815089162,
        "Mean Anomaly(deg)": -106.29014492601374,
        "RAAN(deg)": 114.99230387348256,
        "Satellite Name": "Constellation 1 521",
        "Satellite Number": 521,
        "Semi-Major Axis(m)": 7083131.272910544,
        "Time(s)": 136
    },
    {
        "Altitude(m)": 716963.7033168935,
        "Argument of Periapsis(deg)": 0.008212876855620568,
        "Eccentricity": 0.0,
        "Inclination(deg)": 45.0,
        "Latitude(deg)": -42.924148842104906,
        "Longitude(deg)": -97.87342717458678,
        "Mean Anomaly(deg)": -106.22944378576385,
        "RAAN(deg)": 114.99224728431699,
        "Satellite Name": "Constellation 1 521",
        "Satellite Number": 521,
        "Semi-Major Axis(m)": 7083131.272910544,
        "Time(s)": 137
    },
    {
        "Altitude(m)": 716970.4295735387,
        "Argument of Periapsis(deg)": 0.008272824861865974,
        "Eccentricity": 0.0,
        "Inclination(deg)": 45.0,
        "Latitude(deg)": -42.94041807891133,
        "Longitude(deg)": -97.79805440843053,
        "Mean Anomaly(deg)": -106.16874264551392,
        "RAAN(deg)": 114.99219069515141,
        "Satellite Name": "Constellation 1 521",
        "Satellite Number": 521,
        "Semi-Major Axis(m)": 7083131.272910544,
        "Time(s)": 138
    },
    {
        "Altitude(m)": 716977.1327889005,
        "Argument of Periapsis(deg)": 0.00833277286811138,
        "Eccentricity": 0.0,
        "Inclination(deg)": 45.0,
        "Latitude(deg)": -42.956632061898354,
        "Longitude(deg)": -97.72263994827894,
        "Mean Anomaly(deg)": -106.10804150526405,
        "RAAN(deg)": 114.99213410598584,
        "Satellite Name": "Constellation 1 521",
        "Satellite Number": 521,
        "Semi-Major Axis(m)": 7083131.272910544,
        "Time(s)": 139
    },
    {
        "Altitude(m)": 716983.8129383144,
        "Argument of Periapsis(deg)": 0.008392720874356788,
        "Eccentricity": 0.0,
        "Inclination(deg)": 45.0,
        "Latitude(deg)": -42.97279073151798,
        "Longitude(deg)": -97.64718389054583,
        "Mean Anomaly(deg)": -106.04734036501415,
        "RAAN(deg)": 114.99207751682026,
        "Satellite Name": "Constellation 1 521",
        "Satellite Number": 521,
        "Semi-Major Axis(m)": 7083131.272910544,
        "Time(s)": 140
    },
    {
        "Altitude(m)": 716990.4699972107,
        "Argument of Periapsis(deg)": 0.008452668880602192,
        "Eccentricity": 0.0,
        "Inclination(deg)": 45.0,
        "Latitude(deg)": -42.98889402834577,
        "Longitude(deg)": -97.57168650030015,
        "Mean Anomaly(deg)": -105.98663922476425,
        "RAAN(deg)": 114.99202092765469,
        "Satellite Name": "Constellation 1 521",
        "Satellite Number": 521,
        "Semi-Major Axis(m)": 7083131.272910544,
        "Time(s)": 141
    },
    {
        "Altitude(m)": 716997.1039410869,
        "Argument of Periapsis(deg)": 0.008512616886847598,
        "Eccentricity": 0.0,
        "Inclination(deg)": 45.0,
        "Latitude(deg)": -43.00494189308198,
        "Longitude(deg)": -97.49614753887656,
        "Mean Anomaly(deg)": -105.92593808451434,
        "RAAN(deg)": 114.99196433848914,
        "Satellite Name": "Constellation 1 521",
        "Satellite Number": 521,
        "Semi-Major Axis(m)": 7083131.272910544,
        "Time(s)": 142
    },
    {
        "Altitude(m)": 717003.7147455344,
        "Argument of Periapsis(deg)": 0.008572564893093004,
        "Eccentricity": 0.0,
        "Inclination(deg)": 45.0,
        "Latitude(deg)": -43.02093426655196,
        "Longitude(deg)": -97.42056727245951,
        "Mean Anomaly(deg)": -105.86523694426451,
        "RAAN(deg)": 114.99190774932354,
        "Satellite Name": "Constellation 1 521",
        "Satellite Number": 521,
        "Semi-Major Axis(m)": 7083131.272910544,
        "Time(s)": 143
    },
    {
        "Altitude(m)": 717010.3023862339,
        "Argument of Periapsis(deg)": 0.008632512899338408,
        "Eccentricity": 0.0,
        "Inclination(deg)": 45.0,
        "Latitude(deg)": -43.03687108970754,
        "Longitude(deg)": -97.34494579969306,
        "Mean Anomaly(deg)": -105.80453580401455,
        "RAAN(deg)": 114.99185116015799,
        "Satellite Name": "Constellation 1 521",
        "Satellite Number": 521,
        "Semi-Major Axis(m)": 7083131.272910544,
        "Time(s)": 144
    },
    {
        "Altitude(m)": 717016.8668389363,
        "Argument of Periapsis(deg)": 0.008692460905583814,
        "Eccentricity": 0.0,
        "Inclination(deg)": 45.0,
        "Latitude(deg)": -43.05275230362763,
        "Longitude(deg)": -97.26928321977893,
        "Mean Anomaly(deg)": -105.7438346637646,
        "RAAN(deg)": 114.99179457099244,
        "Satellite Name": "Constellation 1 521",
        "Satellite Number": 521,
        "Semi-Major Axis(m)": 7083131.272910544,
        "Time(s)": 145
    },
    {
        "Altitude(m)": 717023.4080794931,
        "Argument of Periapsis(deg)": 0.00875240891182922,
        "Eccentricity": 0.0,
        "Inclination(deg)": 45.0,
        "Latitude(deg)": -43.06857784951917,
        "Longitude(deg)": -97.19357963247612,
        "Mean Anomaly(deg)": -105.68313352351478,
        "RAAN(deg)": 114.99173798182684,
        "Satellite Name": "Constellation 1 521",
        "Satellite Number": 521,
        "Semi-Major Axis(m)": 7083131.272910544,
        "Time(s)": 146
    },
    {
        "Altitude(m)": 717029.9260838259,
        "Argument of Periapsis(deg)": 0.008812356918074627,
        "Eccentricity": 0.0,
        "Inclination(deg)": 45.0,
        "Latitude(deg)": -43.08434766871824,
        "Longitude(deg)": -97.11783513810013,
        "Mean Anomaly(deg)": -105.62243238326488,
        "RAAN(deg)": 114.99168139266129,
        "Satellite Name": "Constellation 1 521",
        "Satellite Number": 521,
        "Semi-Major Axis(m)": 7083131.272910544,
        "Time(s)": 147
    },
    {
        "Altitude(m)": 717036.4208279488,
        "Argument of Periapsis(deg)": 0.008872304924320031,
        "Eccentricity": 0.0,
        "Inclination(deg)": 45.0,
        "Latitude(deg)": -43.10006170269062,
        "Longitude(deg)": -97.04205000562077,
        "Mean Anomaly(deg)": -105.5617312430149,
        "RAAN(deg)": 114.9916248034957,
        "Satellite Name": "Constellation 1 521",
        "Satellite Number": 521,
        "Semi-Major Axis(m)": 7083131.272910544,
        "Time(s)": 148
    },
    {
        "Altitude(m)": 717042.8922879583,
        "Argument of Periapsis(deg)": 0.008932252930565437,
        "Eccentricity": 0.0,
        "Inclination(deg)": 45.0,
        "Latitude(deg)": -43.11571989303302,
        "Longitude(deg)": -96.96622400027266,
        "Mean Anomaly(deg)": -105.50103010276506,
        "RAAN(deg)": 114.99156821433014,
        "Satellite Name": "Constellation 1 521",
        "Satellite Number": 521,
        "Semi-Major Axis(m)": 7083131.272910544,
        "Time(s)": 149
    },
    {
        "Altitude(m)": 717049.3404400339,
        "Argument of Periapsis(deg)": 0.008992200936810843,
        "Eccentricity": 0.0,
        "Inclination(deg)": 45.0,
        "Latitude(deg)": -43.13132218147375,
        "Longitude(deg)": -96.89035739213843,
        "Mean Anomaly(deg)": -105.44032896251522,
        "RAAN(deg)": 114.99151162516459,
        "Satellite Name": "Constellation 1 521",
        "Satellite Number": 521,
        "Semi-Major Axis(m)": 7083131.272910544,
        "Time(s)": 150
    },
    {
        "Altitude(m)": 717055.7652604475,
        "Argument of Periapsis(deg)": 0.009052148943056249,
        "Eccentricity": 0.0,
        "Inclination(deg)": 45.0,
        "Latitude(deg)": -43.146868509873705,
        "Longitude(deg)": -96.81445028375931,
        "Mean Anomaly(deg)": -105.37962782226526,
        "RAAN(deg)": 114.991455035999,
        "Satellite Name": "Constellation 1 521",
        "Satellite Number": 521,
        "Semi-Major Axis(m)": 7083131.272910544,
        "Time(s)": 151
    }
]